# From MPC106342
C/1995 O1 (Hale-Bopp),e,89.0933,283.1417,130.4704,178.0347,0.0004149,0.99495987,0.0000,03/29.7505/1997,2000,g -2.0,4.0
# From NK 1615
P/1996 R2 (Lagerkvist),e,2.6006,40.0171,333.3316,3.774896,0.1343837,0.31430125,126.5930,09/11.0/2021,2000,g 11.5,4.0
# From MPC 30063
P/1997 B1 (Kobayashi),e,12.3395,328.8812,183.3303,8.577378,0.0392349,0.76029129,352.2025,09/11.0/2021,2000,g 15.0,2.0
# From MPC 75703
P/1998 VS24 (LINEAR),e,5.0263,159.0369,244.6100,4.527737,0.1023016,0.24243731,136.2315,09/11.0/2021,2000,g 13.0,2.0
# From NK 731
P/1999 RO28 (LONEOS),e,7.5673,137.8860,231.2640,3.426655,0.1553812,0.67230689,125.4948,09/11.0/2021,2000,g 20.0,2.0
# From MPC 75704
P/1999 XN120 (Catalina),e,5.0296,285.2967,161.8013,4.179065,0.1153680,0.21020923,179.3594,09/11.0/2021,2000,g 13.5,2.0
# From NK 744
P/2000 R2 (LINEAR),e,11.6868,160.2863,176.5486,3.466821,0.1526887,0.53162067,124.6572,09/11.0/2021,2000,g 18.0,4.0
# From MPC 43019
P/2001 H5 (NEAT),e,8.3667,328.6825,224.8364,6.097574,0.0654589,0.59833668,141.0880,09/11.0/2021,2000,g 12.0,4.0
# From MPC 75704
P/2001 Q6 (NEAT),e,56.9098,22.1646,42.9281,7.954511,0.0439323,0.82303136,320.4297,09/11.0/2021,2000,g 13.5,4.0
# From MPC 47727
P/2002 EJ57 (LINEAR),e,4.9762,330.3263,167.3477,6.469366,0.0598979,0.59234083,70.7498,09/11.0/2021,2000,g 12.5,4.0
# From MPC109588
P/2002 T6 (NEAT-LINEAR),e,10.8391,206.2248,219.6645,7.690402,0.0462147,0.56092729,311.7120,09/11.0/2021,2000,g 10.5,4.0
# From MPC 75007
C/2002 VQ94 (LINEAR),e,70.6248,35.0709,100.1047,184.8372,0.0003922,0.96306185,2.2378,09/11.0/2021,2000,g  9.5,2.0
# From MPC 50354
P/2003 F2 (NEAT),e,11.6067,359.0233,192.1498,6.501143,0.0594593,0.54218922,39.7358,09/11.0/2021,2000,g 16.5,2.0
# From MPC 50139
P/2003 QX29 (NEAT),e,11.3903,264.5604,37.5250,8.025522,0.0433505,0.47296918,298.2459,09/11.0/2021,2000,g  8.5,4.0
# From MPC105235
P/2003 T12 (SOHO),e,11.0204,174.5789,219.7514,2.585877,0.2370240,0.76982060,116.6333,09/11.0/2021,2000,g 17.0,4.0
# From MPC 82312
P/2004 A1 (LONEOS),e,10.5516,124.8487,21.2591,7.962667,0.0438648,0.30935890,274.1161,09/11.0/2021,2000,g  6.5,4.0
# From MPC 54558
P/2004 DO29 (Spacewatch-LINEAR),e,14.5325,147.3717,40.6481,7.286774,0.0501073,0.44110984,310.0172,09/11.0/2021,2000,g 13.5,2.0
# From MPC 54823
P/2004 FY140 (LINEAR),e,2.1348,326.7621,242.3635,4.903902,0.0907594,0.16813772,203.5530,09/11.0/2021,2000,g 12.5,2.0
# From MPC 53304
P/2004 R3 (LINEAR-NEAT),e,12.7957,305.4387,37.9467,4.786365,0.0941229,0.25888055,358.8720,09/11.0/2021,2000,g 14.5,4.0
# From MPC 55521
P/2004 V3 (Siding Spring),e,50.4421,356.1264,322.3750,7.139053,0.0516706,0.44630640,318.5434,09/11.0/2021,2000,g 11.5,4.0
# From MPC 75705
P/2004 V5 (LINEAR-Hill),e,19.3411,47.7872,87.6748,7.981214,0.0437120,0.44369755,265.2835,09/11.0/2021,2000,g  8.0,4.0
# From MPC 54164
P/2005 E1 (Tubbiolo),e,4.2638,335.5669,194.0298,7.041814,0.0527445,0.37514945,320.5263,09/11.0/2021,2000,g 10.0,4.0
# From MPC 54823
P/2005 GF8 (LONEOS),e,1.1886,314.7162,284.6552,5.823642,0.0701313,0.51727460,50.0941,09/11.0/2021,2000,g 11.5,4.0
# From MPC 79019
P/2005 J1 (McNaught),e,31.7581,268.8151,338.9614,3.570697,0.1460746,0.56950414,155.5130,09/11.0/2021,2000,g 16.5,4.0
# From MPC 74246
P/2005 L1 (McNaught),e,7.7385,138.2480,149.7341,3.976589,0.1242905,0.20972137,353.4411,09/11.0/2021,2000,g  9.5,4.0
# From MPC 75706
P/2005 S2 (Skiff),e,3.1357,161.2137,229.1827,8.013492,0.0434482,0.19764689,243.3972,09/11.0/2021,2000,g  7.5,4.0
# From MPC 75706
P/2005 SB216 (LONEOS),e,24.0916,1.1738,83.3386,7.134217,0.0517231,0.46385515,277.7717,09/11.0/2021,2000,g 12.0,2.0
# From MPC 55717
P/2005 T2 (Christensen),e,8.2915,260.1605,58.8531,3.847098,0.1306184,0.41635459,67.9941,09/11.0/2021,2000,g 14.5,4.0
# From MPC 73461
P/2005 T3 (Read),e,6.2237,27.7085,6.7575,7.584184,0.0471890,0.17461065,274.9909,09/11.0/2021,2000,g  9.0,4.0
# From MPC 73461
P/2005 T4 (SWAN),e,160.2248,25.7906,41.6961,9.361248,0.0344115,0.92972194,200.4034,09/11.0/2021,2000,g 15.0,4.0
# From MPC 75706
P/2005 T5 (Broughton),e,21.3644,57.0007,304.5870,7.288255,0.0500920,0.55243075,291.2648,09/11.0/2021,2000,g 11.0,4.0
# From MPC 75706
P/2005 Y2 (McNaught),e,19.0506,94.3610,193.8602,6.372851,0.0612637,0.46998697,20.0248,09/11.0/2021,2000,g  9.0,4.0
# From MPC 56954
P/2006 F4 (Spacewatch),e,12.4313,183.8241,30.8827,3.519979,0.1492430,0.34050300,114.9999,09/11.0/2021,2000,g 15.0,4.0
# From MPC 75707
P/2006 HR30 (Siding Spring),e,31.8324,309.8962,117.2967,7.811032,0.0451483,0.84244413,243.1995,09/11.0/2021,2000,g 11.0,4.0
# From MPC 75707
P/2007 A2 (Christensen),e,26.4877,300.9080,186.7232,6.329723,0.0618909,0.55786276,332.5096,09/11.0/2021,2000,g 13.5,4.0
# From MPC 75707
P/2007 C2 (Catalina),e,8.6284,275.4677,180.0762,6.992733,0.0533008,0.47114678,271.7089,09/11.0/2021,2000,g 10.0,4.0
# From MPC 84315
C/2007 D1 (LINEAR),e,41.5017,171.2207,339.9756,1356,0.0000197,0.99349594,0.0000,06/07.9188/2007,2000,g  3.5,4.0
# From MPC 82314
P/2007 K2 (Gibbs),e,7.6306,188.6401,347.4231,7.267271,0.0503092,0.68300484,262.5313,09/11.0/2021,2000,g 14.0,4.0
# From MPC 60925
P/2007 Q2 (Gilmore),e,10.2026,172.1582,162.7877,5.653214,0.0733265,0.67012108,21.1194,09/11.0/2021,2000,g 16.0,4.0
# From MPC 75708
P/2007 R4 (Garradd),e,20.2100,87.2013,282.5851,5.935476,0.0681586,0.67019186,353.9542,09/11.0/2021,2000,g 14.5,4.0
# From MPC 73462
P/2007 S1 (Zhao),e,5.9641,141.3701,245.5142,3.818521,0.1320874,0.33963355,308.2363,09/11.0/2021,2000,g 13.0,4.0
# From MPC 61994
P/2007 T2 (Kowalski),e,9.7503,3.3755,359.6419,3.046711,0.1853349,0.78549171,212.1863,09/11.0/2021,2000,g 18.5,4.0
# From MPC 75709
P/2008 L2 (Hill),e,25.8646,218.0111,141.2326,6.028214,0.0665919,0.61327939,319.5740,09/11.0/2021,2000,g 12.5,4.0
# From MPC 64114
P/2008 O3 (Boattini),e,32.2851,47.5808,341.1109,8.220076,0.0418206,0.69569177,203.0969,09/11.0/2021,2000,g 13.0,4.0
# From MPEC 2021-R75
P/2008 QP20 (LINEAR-Hill),e,7.5221,322.0757,75.5162,3.552372,0.1472063,0.49155026,343.3525,09/11.0/2021,2000,g 15.5,4.0
# From MPC 66204
P/2008 WZ96 (LINEAR),e,7.1118,56.4458,341.9361,3.486744,0.1513819,0.46978646,2.3020,09/11.0/2021,2000,g 13.5,4.0
# From MPC 75710
P/2008 Y3 (McNaught),e,38.7690,262.8110,238.1721,8.047406,0.0431738,0.44543963,200.6522,09/11.0/2021,2000,g  8.5,4.0
# From MPC 75710
P/2009 B1 (Boattini),e,22.2217,297.0880,128.8738,6.737414,0.0563591,0.63499018,261.0899,09/11.0/2021,2000,g 13.0,4.0
# From MPC 66466
C/2009 G1 (STEREO),e,108.7080,120.4543,175.4426,444.0801,0.0001053,0.99743777,0.0000,04/16.3811/2009,2000,g  9.0,4.0
# From MPC 75710
P/2009 O3 (Hill),e,16.2788,183.6962,154.4370,7.768522,0.0455194,0.68785182,204.5121,09/11.0/2021,2000,g 12.5,4.0
# From MPC 68902
P/2009 Q5 (McNaught),e,40.9877,160.2789,209.0376,7.434735,0.0486190,0.60926926,213.3077,09/11.0/2021,2000,g 10.0,4.0
# From MPC112389
P/2009 T2 (La Sagra),e,27.5736,215.8381,216.3667,7.722493,0.0459270,0.76555989,196.3706,09/11.0/2021,2000,g 14.0,4.0
# From MPC105235
P/2009 WX51 (Catalina),e,9.5939,31.6576,118.1301,3.081638,0.1821930,0.74017767,54.4144,09/11.0/2021,2000,g 19.0,2.0
# From MPC 74247
P/2009 Y2 (Kowalski),e,29.9380,262.0274,172.1379,6.550252,0.0587918,0.63615508,247.7208,09/11.0/2021,2000,g 13.0,4.0
# From MPC 75711
P/2010 A3 (Hill),e,14.8311,63.8167,42.1600,6.079751,0.0657469,0.73352073,275.9372,09/11.0/2021,2000,g 14.0,4.0
# From MPC 75008
P/2010 C1 (Scotti),e,9.1281,141.8860,3.6182,7.103862,0.0520550,0.25897892,225.0242,09/11.0/2021,2000,g  9.5,4.0
# From MPC 75008
P/2010 D2 (WISE),e,57.0859,319.8908,120.0136,6.717856,0.0566054,0.45107073,239.4366,09/11.0/2021,2000,g 16.0,4.0
# From MPC 75009
P/2010 E2 (Jarnac),e,15.3918,177.8224,8.3537,8.639597,0.0388118,0.71972522,162.3278,09/11.0/2021,2000,g 14.0,4.0
# From MPC 72851
P/2010 H2 (Vales),e,14.2749,64.1944,128.0876,3.833303,0.1313241,0.19596493,192.2058,09/11.0/2021,2000,g  6.0,4.0
# From MPC 70361
P/2010 H3 (SOHO),e,23.0701,77.0895,26.1557,3.037440,0.1861841,0.98536347,0.0000,02/07.9544/2021,2000,g 20.0,2.0
# From MPC 73463
P/2010 H4 (Scotti),e,2.3182,44.7357,179.5081,6.593306,0.0582169,0.26689506,238.9595,09/11.0/2021,2000,g 10.5,4.0
# From MPC 74637
P/2010 H5 (Scotti),e,14.0612,24.8022,175.1156,7.163936,0.0514016,0.15297698,214.8768,09/11.0/2021,2000,g 13.0,2.0
# From MPC 98558
P/2010 J3 (McMillan),e,13.2831,106.4255,157.6009,8.974447,0.0366600,0.72665863,147.7682,09/11.0/2021,2000,g 11.0,4.0
# From MPC 84315
P/2010 JC81 (WISE),e,38.7690,30.8531,12.4255,8.108727,0.0426850,0.77721171,162.0464,09/11.0/2021,2000,g  9.0,4.0
# From MPC 74248
P/2010 T2 (PANSTARRS),e,7.8926,58.8089,353.2310,5.536748,0.0756523,0.32170020,290.2175,09/11.0/2021,2000,g 11.5,4.0
# From MPC 98558
P/2010 TO20 (LINEAR-Grauer),e,2.4789,43.2923,266.9246,5.831458,0.0699904,0.05521698,329.4656,09/11.0/2021,2000,g  9.0,4.0
# From MPC 82316
P/2010 U1 (Boattini),e,8.2157,280.7034,86.0088,6.508207,0.0593625,0.24862755,251.9731,09/11.0/2021,2000,g  9.5,4.0
# From MPEC 2021-R75
C/2010 U3 (Boattini),e,55.5333,43.0145,88.0477,2366,0.0000086,0.99643113,0.0000,02/25.3177/2019,2000,g  1.0,4.0
# From MPC 79021
P/2010 UH55 (Spacewatch),e,8.0404,232.9346,225.1657,6.653478,0.0574290,0.56335441,218.7042,09/11.0/2021,2000,g 11.0,4.0
# From MPC 75009
P/2010 WK (LINEAR),e,11.4014,11.3285,40.9649,5.761867,0.0712622,0.69007525,285.5412,09/11.0/2021,2000,g 14.5,2.0
# From MPEC 2021-Q69
P/2011 A2 (Scotti),e,4.4749,54.6753,94.5085,3.106614,0.1800003,0.49957303,345.1958,09/11.0/2021,2000,g 16.5,4.0
# From MPC 84021
P/2011 C2 (Gibbs),e,10.8850,12.1242,160.8369,7.413679,0.0488263,0.26886797,173.0898,09/11.0/2021,2000,g  9.0,4.0
# From MPC 79866
P/2011 FR143 (Lemmon),e,15.9793,190.9506,350.0644,6.859795,0.0548577,0.45057488,211.1860,09/11.0/2021,2000,g 14.0,2.0
# From MPC 82317
P/2011 JB15 (Spacewatch-Boattini),e,19.1476,153.5803,111.0656,7.358775,0.0493737,0.31729666,173.7669,09/11.0/2021,2000,g  9.0,4.0
# From MPC 87913
P/2011 N1 (ASH),e,35.7320,77.5907,330.3392,6.248190,0.0631063,0.54424553,214.6614,09/11.0/2021,2000,g 11.5,4.0
# From MPC 75714
